ORBCOMM FM05 [-]        
1 25117U 97084F   23263.82776710  .00002282  00000+0  74146-3 0  9996
2 25117  45.0150 166.7885 0003056 295.5657  64.4877 14.41392347348804
ORBCOMM FM06 [+]        
1 25118U 97084G   23263.79186545  .00002390  00000+0  77531-3 0  9995
2 25118  45.0144 167.1080 0002550 312.6900  89.8211 14.41325920349717
ORBCOMM FM07 [-]        
1 25119U 97084H   23263.83377957  .00002431  00000+0  78880-3 0  9994
2 25119  45.0139 167.3388 0003384 280.8837  79.1632 14.41273742349719
ORBCOMM FM03 [-]        
1 25158U 98007B   23263.92116731  .00001614  00000+0  64992-3 0  9995
2 25158 107.9829 273.8430 0049789 276.8103  82.7372 14.31259324333057
ORBCOMM FM04 [+]        
1 25159U 98007C   23263.88235164  .00001442  00000+0  58434-3 0  9996
2 25159 107.9810 276.5448 0045284 274.9451  84.6518 14.31534642333218
ORBCOMM FM17 [-]        
1 25413U 98046A   23263.59294610  .00001418  00000+0  57190-3 0  9992
2 25413  44.9970  10.1889 0003123 246.7013 113.3504 14.32319164311960
ORBCOMM FM18 [-]        
1 25414U 98046B   23263.80419986  .00001632  00000+0  61948-3 0  9996
2 25414  44.9950 300.9801 0005446 304.5355  55.4978 14.34793155312886
ORBCOMM FM19 [+]        
1 25415U 98046C   23263.49445183  .00001494  00000+0  57262-3 0  9990
2 25415  44.9958 303.5665 0004621 291.3726 208.9220 14.34671897312806
